METEOR-M2 2             
1 44387U 19038A   21202.48750909 -.00000024  00000-0  85201-5 0  9994
2 44387  98.6720 161.8476 0001993 119.6158 240.5222 14.23689646106313
VDNH-80                 
1 44392U 19038G   21202.57865007  .00000923  00000-0  54641-4 0  9996
2 44392  97.5883 167.0741 0020612 190.5976 230.0021 15.13794505112752
D-STAR ONE (LIGHTSAT)   
1 44393U 19038H   21202.43479271  .00001207  00000-0  70508-4 0  9992
2 44393  97.5902 166.8064 0020899 191.2377 168.8391 15.13692172112924
AMGU-1 (AMURSAT)        
1 44394U 19038J   21202.58300498  .00000832  00000-0  49735-4 0  9994
2 44394  97.5896 166.8975 0020674 191.7012 168.3733 15.13693143112946
DOT-1                   
1 44399U 19038P   21202.49560295  .00000758  00000-0  46797-4 0  9994
2 44399  97.5924 166.2440 0023780 195.3348 164.7165 15.12736913112881
SOKRAT                  
1 44404U 19038U   21202.40797090  .00001196  00000-0  70199-4 0  9997
2 44404  97.5894 166.4939 0021129 193.2335 166.8345 15.13520313112909
LUCKY-7                 
1 44406U 19038W   21202.44477414  .00000897  00000-0  54250-4 0  9995
2 44406  97.5918 166.4171 0023809 187.9495 172.1362 15.13022893112886
D-STAR ONE (EXOCONNECT) 
1 44410U 19038AA  21202.48434912  .00001809  00000-0  10198-3 0  9996
2 44410  97.5865 166.8727 0020785 190.3573 169.7233 15.14329509112949
NARSSCUBE-2             
1 44415U 19022E   21202.49652213  .00000675  00000-0  34138-4 0  9992
2 44415  51.6432 274.2966 0010891 308.3563  51.6439 15.31173653109366
KRAKSAT                 
1 44427U 98067QM  21202.28514065  .00022087  00000-0  19210-3 0  9994
2 44427  51.6377 128.2274 0003368  32.5410  51.7954 15.68972420116781
ENTRYSAT                
1 44429U 98067QP  21202.13754126  .00310557  50369-4  67974-3 0  9993
2 44429  51.6226 101.4226 0002459 181.9468 178.1532 15.97661346117127
NARSSCUBE-1             
1 44792U 98067QX  21202.11972830  .00034534  00000-0  30239-3 0  9993
2 44792  51.6346 139.9796 0005088  62.7453 297.4062 15.68533233 94849
DUCHIFAT-3              
1 44854U 19089C   21202.48668339  .00000280  00000-0  28768-4 0  9991
2 44854  36.9684 259.3657 0007601  46.1530 313.9841 14.99542112 88219
OPS-SAT                 
1 44878U 19092F   21202.49965508  .00001033  00000-0  56140-4 0  9992
2 44878  97.4757  25.4985 0015116  55.9378 304.3288 15.16616683 87990
FLORIPASAT-1            
1 44885U 19093G   21202.50985621  .00000248  00000-0  37688-4 0  9994
2 44885  97.9258 281.6020 0014656 184.2461 175.8630 14.82328112 85812
HUSKYSAT-1 (HO-107)     
1 45119U 19071J   21202.44596813  .00002304  00000-0  75532-4 0  9990
2 45119  51.6405 232.0373 0011769  53.8307 306.3763 15.36013561 82394
G-SAT                   
1 45597U 98067RK  21202.26968050  .00015425  00000-0  20155-3 0  9996
2 45597  51.6383 159.0617 0004638  90.7195 269.4329 15.58845863 69888
QUETZAL-1               
1 45598U 98067RL  21202.25595948  .00022068  00000-0  26367-3 0  9990
2 45598  51.6382 157.4657 0002628  94.8001 265.3292 15.60935105 69833
BY70-2                  
1 45857U 20042B   21202.58392955  .00001081  00000-0  16003-3 0  9993
2 45857  97.9830 277.9769 0012824 103.5818 256.6837 14.77123405 56582
SALSAT                  
1 46495U 20068K   21202.60319364 -.00000059  00000-0  22254-6 0  9999
2 46495  97.6935 139.8999 0015874 323.7229  36.2917 15.03492638 44467
NETSAT-4                
1 46504U 20068U   21202.53973275  .00000063  00000-0  94103-5 0  9994
2 46504  97.6954 139.1191 0014151  19.6371 340.5399 15.02158022 44350
NETSAT-3                
1 46505U 20068V   21202.54745301  .00000312  00000-0  28342-4 0  9991
2 46505  97.6951 139.0893 0012001  31.2579 328.9377 15.02124408 44366
NETSAT-1                
1 46506U 20068W   21202.62142465  .00000444  00000-0  38409-4 0  9994
2 46506  97.6943 139.1283 0009174  40.7834 319.4077 15.02092092 44374
NETSAT-2                
1 46507U 20068X   21202.62561635  .00000592  00000-0  49692-4 0  9999
2 46507  97.6932 139.1285 0007686  43.0227 317.1599 15.02067345 44325
BY70-3                  
1 46839U 20079N   21202.50709366  .00002963  00000-0  92569-4 0  9996
2 46839  97.2393 275.6899 0009089  87.5900  26.9164 15.33916184 39423
SPOC                    
1 46921U 98067RR  21202.52586398  .00010065  00000-0  15410-3 0  9991
2 46921  51.6404 166.0398 0001271 175.6340 184.4662 15.55008326 40161
BOBCAT-1                
1 46922U 98067RS  21202.17910178  .00017179  00000-0  23974-3 0  9997
2 46922  51.6411 165.9974 0000726 159.4699 200.6322 15.56990073 40095
NEUTRON-1               
1 46923U 98067RT  21202.54421927  .00009744  00000-0  15013-3 0  9992
2 46923  51.6404 166.1597 0000963 197.9130 162.1827 15.54877995 40190
1998-067RU              
1 46924U 98067RU  21202.25142687  .00034456  00000-0  39734-3 0  9998
2 46924  51.6379 161.9403 0000799  11.1649 348.9362 15.61602745 40195
DESCENT                 
1 46927U 98067RX  21202.35676193  .00010786  00000-0  16547-3 0  9993
2 46927  51.6400 167.1546 0000955 243.1944 116.8950 15.54866091 40078
UVSQ-SAT                
1 47438U 21006AB  21202.43742162  .00001037  00000-0  61993-4 0  9994
2 47438  97.4852 263.0505 0012202 348.3727  11.7220 15.13217851 27191
SOMP2B                  
1 47445U 21006AJ  21202.45540865  .00000943  00000-0  56958-4 0  9990
2 47445  97.4826 262.9602 0011926 352.5979   7.5074 15.13054487 27198
WARP-01                 
1 47924U 98067SA  21202.29810604  .00013557  00000-0  22386-3 0  9998
2 47924  51.6401 171.9924 0003493 230.7219 129.3461 15.52565464 20057
RSP-01                  
1 47925U 98067SB  21202.36801343  .00011231  00000-0  18904-3 0  9995
2 47925  51.6408 171.7173 0002039 132.8037 227.3124 15.52229689 20044
TAUSAT-1                
1 47926U 98067SC  21202.51946783  .00013050  00000-0  21278-3 0  9990
2 47926  51.6400 170.4775 0002911 141.3737 218.7462 15.52958599 20062
TSURU                   
1 47927U 98067SD  21202.31229399  .00010271  00000-0  17495-3 0  9994
2 47927  51.6408 172.0953 0002158 132.5594 227.5579 15.52003434 20036
STARS-EC                
1 47928U 98067SE  21202.49742252  .00013580  00000-0  22493-3 0  9992
2 47928  51.6404 171.0746 0004138 237.6338 122.4251 15.52476451 20049
MAYA-2                  
1 47929U 98067SF  21202.50285191  .00009664  00000-0  16488-3 0  9994
2 47929  51.6408 171.1177 0002295 131.8400 228.2786 15.52036659 20028
HIROGARI (OPUSAT-II)    
1 47930U 98067SG  21202.34470766  .00015085  00000-0  24529-3 0  9991
2 47930  51.6406 171.5634 0002258 119.2909 240.8307 15.52896884 20048
GUARANISAT-1            
1 47931U 98067SH  21202.43734937  .00009960  00000-0  16961-3 0  9991
2 47931  51.6409 171.4315 0002344 130.9355 229.1838 15.52049067 20051
DIY-1 (ARDUIQUBE)       
1 47963U 21022AH  21202.54958165  .00002262  00000-0  15305-3 0  9995
2 47963  97.5557 104.2791 0019045 183.4856 176.6243 15.07400734 17038
